{
    "links": {
        "self": "http://www.neowsapp.com/rest/v1/neo/54016816?api_key=iIulBulltgU6a56xZRHN4H3l9WmuAYTsLGpBGhQ2"
    },
    "id": "54016816",
    "neo_reference_id": "54016816",
    "name": "(2020 HQ8)",
    "designation": "2020 HQ8",
    "nasa_jpl_url": "http://ssd.jpl.nasa.gov/sbdb.cgi?sstr=54016816",
    "absolute_magnitude_h": 26.306,
    "estimated_diameter": {
        "kilometers": {
            "estimated_diameter_min": 0.0145664921,
            "estimated_diameter_max": 0.0325716665
        },
        "meters": {
            "estimated_diameter_min": 14.5664920653,
            "estimated_diameter_max": 32.5716664516
        },
        "miles": {
            "estimated_diameter_min": 0.0090511957,
            "estimated_diameter_max": 0.020239089
        },
        "feet": {
            "estimated_diameter_min": 47.7903298274,
            "estimated_diameter_max": 106.8624261612
        }
    },
    "is_potentially_hazardous_asteroid": false,
    "close_approach_data": [
        {
            "close_approach_date": "2020-04-22",
            "close_approach_date_full": "2020-Apr-22 19:35",
            "epoch_date_close_approach": 1587584100000,
            "relative_velocity": {
                "kilometers_per_second": "8.1592883702",
                "kilometers_per_hour": "29373.438132732",
                "miles_per_hour": "18251.5121553078"
            },
            "miss_distance": {
                "astronomical": "0.0296423782",
                "lunar": "11.5308851198",
                "kilometers": "4434436.640454434",
                "miles": "2755431.1573378292"
            },
            "orbiting_body": "Earth"
        }
    ],
    "orbital_data": {
        "orbit_id": "2",
        "orbit_determination_date": "2020-05-06 05:55:33",
        "first_observation_date": "2020-04-27",
        "last_observation_date": "2020-05-04",
        "data_arc_in_days": 7,
        "observations_used": 31,
        "orbit_uncertainty": "8",
        "minimum_orbit_intersection": ".0256484",
        "jupiter_tisserand_invariant": "3.520",
        "epoch_osculation": "2458967.5",
        "eccentricity": ".5184597891347629",
        "semi_major_axis": "2.136020349478509",
        "inclination": "8.333018671673637",
        "ascending_node_longitude": "210.1879585501313",
        "orbital_period": "1140.266868289758",
        "perihelion_distance": "1.028579689500319",
        "perihelion_argument": "353.8344301050651",
        "aphelion_distance": "3.2434610094567",
        "perihelion_time": "2458955.269829590149",
        "mean_anomaly": "3.861255176299246",
        "mean_motion": ".3157155662515653",
        "equinox": "J2000",
        "orbit_class": {
            "orbit_class_type": "AMO",
            "orbit_class_description": "Near-Earth asteroid orbits similar to that of 1221 Amor",
            "orbit_class_range": "1.017 AU < q (perihelion) < 1.3 AU"
        }
    },
    "is_sentry_object": false
}